KUIPER-00079            
1 64826U 25151L   25360.15249757  .00004946  00000+0  67644-3 0  9998
2 64826  51.8986 265.7513 0011951   0.2444 359.8523 14.79960768 25611
KUIPER-00080            
1 64827U 25151M   25360.11869281 -.00002331  00000+0 -27687-3 0  9996
2 64827  51.8996 265.9050 0006187  22.9921 337.1317 14.79892605 24418
KUIPER-00082            
1 64828U 25151N   25360.09833372  .00003762  00000+0  52204-3 0  9996
2 64828  51.9014 253.5127 0005446  48.9866 311.1567 14.79948057 24582
KUIPER-00083            
1 64829U 25151P   25360.02269969  .00005033  00000+0  68863-3 0  9996
2 64829  51.9005 261.3394 0011347   0.7896 359.3082 14.79917946 25650
KUIPER-00084            
1 64830U 25151Q   25358.93053796 -.00030631  00000+0 -40027-2 0  9999
2 64830  51.9009 276.1449 0012987 330.7138  29.3095 14.79912389 24166
KUIPER-00085            
1 64831U 25151R   25360.13215030 -.00001494  00000+0 -16653-3 0  9990
2 64831  51.9041 253.3794 0007821  21.6597 338.4694 14.79966414 24582
KUIPER-00086            
1 64832U 25151S   25360.05384516  .00005058  00000+0  69148-3 0  9993
2 64832  51.9021 263.7093 0010936 358.9536   1.1402 14.79944826 24436
KUIPER-00087            
1 64833U 25151T   25358.99222769  .00009001  00000+0  12176-2 0  9995
2 64833  51.8958 250.8948 0002469 107.7340 252.3892 14.79600713 24512
